{
    "links": {
        "self": "http://www.neowsapp.com/rest/v1/neo/3439359?api_key=iIulBulltgU6a56xZRHN4H3l9WmuAYTsLGpBGhQ2"
    },
    "id": "3439359",
    "neo_reference_id": "3439359",
    "name": "(2008 WC)",
    "designation": "2008 WC",
    "nasa_jpl_url": "http://ssd.jpl.nasa.gov/sbdb.cgi?sstr=3439359",
    "absolute_magnitude_h": 26.5,
    "estimated_diameter": {
        "kilometers": {
            "estimated_diameter_min": 0.0133215567,
            "estimated_diameter_max": 0.0297879063
        },
        "meters": {
            "estimated_diameter_min": 13.3215566698,
            "estimated_diameter_max": 29.7879062798
        },
        "miles": {
            "estimated_diameter_min": 0.008277629,
            "estimated_diameter_max": 0.0185093411
        },
        "feet": {
            "estimated_diameter_min": 43.7058959846,
            "estimated_diameter_max": 97.7293544391
        }
    },
    "is_potentially_hazardous_asteroid": false,
    "close_approach_data": [
        {
            "close_approach_date": "1962-06-01",
            "close_approach_date_full": "1962-Jun-01 18:39",
            "epoch_date_close_approach": -239347260000,
            "relative_velocity": {
                "kilometers_per_second": "12.7890212891",
                "kilometers_per_hour": "46040.4766409256",
                "miles_per_hour": "28607.7617216907"
            },
            "miss_distance": {
                "astronomical": "0.0756486633",
                "lunar": "29.4273300237",
                "kilometers": "11316878.898027171",
                "miles": "7031982.4698741198"
            },
            "orbiting_body": "Mars"
        },
        {
            "close_approach_date": "2008-11-26",
            "close_approach_date_full": "2008-Nov-26 09:18",
            "epoch_date_close_approach": 1227691080000,
            "relative_velocity": {
                "kilometers_per_second": "8.1450003791",
                "kilometers_per_hour": "29322.0013646431",
                "miles_per_hour": "18219.5513479362"
            },
            "miss_distance": {
                "astronomical": "0.0129946934",
                "lunar": "5.0549357326",
                "kilometers": "1943978.453943058",
                "miles": "1207932.1987198804"
            },
            "orbiting_body": "Earth"
        }
    ],
    "orbital_data": {
        "orbit_id": "15",
        "orbit_determination_date": "2017-04-06 09:02:12",
        "first_observation_date": "2008-11-18",
        "last_observation_date": "2008-11-26",
        "data_arc_in_days": 8,
        "observations_used": 68,
        "orbit_uncertainty": "7",
        "minimum_orbit_intersection": ".00569258",
        "jupiter_tisserand_invariant": "4.014",
        "epoch_osculation": "2459000.5",
        "eccentricity": ".4583959806299854",
        "semi_major_axis": "1.742155920511969",
        "inclination": "2.22356182490847",
        "ascending_node_longitude": "238.8563888924387",
        "orbital_period": "839.9026637126492",
        "perihelion_distance": ".9435586489185503",
        "perihelion_argument": "219.1463495522175",
        "aphelion_distance": "2.540753192105388",
        "perihelion_time": "2459023.987809347544",
        "mean_anomaly": "349.9326294219151",
        "mean_motion": ".4286210956977803",
        "equinox": "J2000",
        "orbit_class": {
            "orbit_class_type": "APO",
            "orbit_class_description": "Near-Earth asteroid orbits which cross the Earth’s orbit similar to that of 1862 Apollo",
            "orbit_class_range": "a (semi-major axis) > 1.0 AU; q (perihelion) < 1.017 AU"
        }
    },
    "is_sentry_object": false
}